{"generatedAt":"2026-05-05T08:19:47.084492Z","satellites":[{"name":"STARLINK-37534","tle1":"1 68897U 26097C   26124.75002315 -.02323179  15447-2 -53074-2 0  9993","tle2":"2 68897  97.2870 319.6742 0001497  94.4177 134.1103 15.97582825  1947"}]}