{
  "norad_id": 68897,
  "name": "STARLINK-37534",
  "history": [
    {
      "epoch": "2026-05-04T18:00:02.000160Z",
      "apogee_km": 282.1242027298458,
      "perigee_km": 280.1304189951734,
      "latitude_deg": -48.29078005066685,
      "longitude_deg": -1.1710013666849455,
      "height_km": 300.63705234580357,
      "semi_major_axis_km": 6659.26431086251,
      "eccentricity": 0.0001497,
      "inclination_deg": 97.287,
      "raan_deg": 319.6742,
      "arg_perigee_deg": 94.4177,
      "mean_anomaly_deg": 134.1103,
      "mean_motion_rev_day": 15.97582825
    }
  ]
}